{"type":"FeatureCollection","schema_version":1,"features":[{"type":"Feature","geometry":{"type":"Polygon","coordinates":[[[-123.13,49.28],[-123.128,49.28],[-123.128,49.282],[-123.13,49.282],[-123.13,49.28]]]},"properties":{"block_id":1,"buildings":2.0,"total_units":52.0,"median_year_built":1971.5,"local_area":"Northside","block_label":"Northside-01","in_chinatown":true,"in_village_plan":true}},{"type":"Feature","geometry":{"type":"Polygon","coordinates":[[[-123.12,49.27],[-123.118,49.27],[-123.118,49.272],[-123.12,49.272],[-123.12,49.27]]]},"properties":{"block_id":2,"buildings":2.0,"total_units":80.0,"median_year_built":1972.0,"local_area":"Southside","block_label":"Southside-01","in_chinatown":false,"in_village_plan":false}},{"type":"Feature","geometry":{"type":"Polygon","coordinates":[[[-123.11,49.26],[-123.108,49.26],[-123.108,49.262],[-123.11,49.262],[-123.11,49.26]]]},"properties":{"block_id":3,"buildings":0.0,"total_units":0.0,"median_year_built":null,"local_area":"(Unknown)","block_label":"(Unknown)-01","in_chinatown":false,"in_village_plan":false}}]}