{"type": "FeatureCollection", "features": [{"type": "Feature", "properties": {"name": "Northside", "geo_point_2d": {"lon": -123.13, "lat": 49.283}}, "geometry": {"type": "Polygon", "coordinates": [[[-123.14, 49.275], [-123.12, 49.275], [-123.12, 49.295], [-123.14, 49.295], [-123.14, 49.275]]]}}, {"type": "Feature", "properties": {"name": "Southside", "geo_point_2d": {"lon": -123.115, "lat": 49.265}}, "geometry": {"type": "Polygon", "coordinates": [[[-123.125, 49.255], [-123.105, 49.255], [-123.105, 49.275000000000006], [-123.125, 49.275000000000006], [-123.125, 49.255]]]}}]}