{
"type": "FeatureCollection",
"name": "expanded_ct_borders",
"crs": { "type": "name", "properties": { "name": "urn:ogc:def:crs:OGC:1.3:CRS84" } },
"features": [
{ "type": "Feature", "properties": { "id": 1 }, "geometry": { "type": "MultiPolygon", "coordinates": [ [ [ [ -123.100301620080913, 49.284103122064749 ], [ -123.095285070954034, 49.284004422106911 ], [ -123.095321976268224, 49.283547019559052 ], [ -123.091410012961987, 49.283498871675619 ], [ -123.091391560304885, 49.282596090156609 ], [ -123.086132553029955, 49.282499792485744 ], [ -123.085911121144676, 49.282030338647317 ], [ -123.084803961718407, 49.282006263971027 ], [ -123.08500694094657, 49.276492853578084 ], [ -123.096816641493731, 49.276709549465217 ], [ -123.102149459397083, 49.277612438747326 ], [ -123.102223270025519, 49.279141293574654 ], [ -123.104917357962833, 49.279213521764177 ], [ -123.106190591303076, 49.279442243666487 ], [ -123.105655464247036, 49.280874740927899 ], [ -123.104197704335746, 49.281909965148351 ], [ -123.100392640435729, 49.281887226427379 ], [ -123.100301620080913, 49.284103122064749 ] ] ] ] } }
]
}
