{
  "type": "FeatureCollection",
  "name": "villages_plan_areas",
  "crs": {
    "type": "name",
    "properties": {
      "name": "urn:ogc:def:crs:OGC:1.3:CRS84"
    }
  },
  "features": [
    {
      "type": "Feature",
      "properties": {
        "id": 1,
        "name": "Nanaimo St & E 1st Ave"
      },
      "geometry": {
        "type": "Polygon",
        "coordinates": [
          [
            [
              -123.05518949775137,
              49.26690457657859
            ],
            [
              -123.05637072878591,
              49.26690333493354
            ],
            [
              -123.05673747325595,
              49.26703622279909
            ],
            [
              -123.06156418995084,
              49.26699116721939
            ],
            [
              -123.0614492508101,
              49.272748698064746
            ],
            [
              -123.06161233292461,
              49.27285514536631
            ],
            [
              -123.06144965399896,
              49.2730685537536
            ],
            [
              -123.06161273714972,
              49.27317500105516
            ],
            [
              -123.06145002358879,
              49.273361754801705
            ],
            [
              -123.0616131076894,
              49.273468202103274
            ],
            [
              -123.06140958844642,
              49.273601689383696
            ],
            [
              -123.0613530275069,
              49.277213457426654
            ],
            [
              -123.05245119393108,
              49.27718283061884
            ],
            [
              -123.05244908947782,
              49.275237041844996
            ],
            [
              -123.05475078948118,
              49.27519464081679
            ],
            [
              -123.05509681247203,
              49.27496771244007
            ],
            [
              -123.05513591744858,
              49.2735283190249
            ],
            [
              -123.05485054445106,
              49.273342036247165
            ],
            [
              -123.05480953641084,
              49.27310218729587
            ],
            [
              -123.05513510061934,
              49.272808643724986
            ],
            [
              -123.05501089754097,
              49.27104956588235
            ],
            [
              -123.05518949775137,
              49.26690457657859
            ]
          ]
        ]
      }
    },
    {
      "type": "Feature",
      "properties": {
        "id": 2,
        "name": "Nanaimo St & E Broadway"
      },
      "geometry": {
        "type": "Polygon",
        "coordinates": [
          [
            [
              -123.05522059226041,
              49.258428358008686
            ],
            [
              -123.05668707389694,
              49.258746672345055
            ],
            [
              -123.06167846027013,
              49.260727198200016
            ],
            [
              -123.06167947212816,
              49.261526837422146
            ],
            [
              -123.06184251840662,
              49.261633284723715
            ],
            [
              -123.06163904773663,
              49.26176677200413
            ],
            [
              -123.06180229746607,
              49.26203314715011
            ],
            [
              -123.06159892612533,
              49.262246598352746
            ],
            [
              -123.06180277057318,
              49.26240631212044
            ],
            [
              -123.06163999153299,
              49.26251310194478
            ],
            [
              -123.06160084619458,
              49.26376591287479
            ],
            [
              -123.0618454264926,
              49.26392558382714
            ],
            [
              -123.06160125041967,
              49.264085768563646
            ],
            [
              -123.0615431003203,
              49.2664181138512
            ],
            [
              -123.05694047883325,
              49.266476261266874
            ],
            [
              -123.0566552012062,
              49.26634328777062
            ],
            [
              -123.0551684807968,
              49.266331523210404
            ],
            [
              -123.05516621020763,
              49.2643324251551
            ],
            [
              -123.05500316936934,
              49.26422597785352
            ],
            [
              -123.05516581663883,
              49.2639859148255
            ],
            [
              -123.05496201710216,
              49.263852855698545
            ],
            [
              -123.05516530197195,
              49.263532785932966
            ],
            [
              -123.05500226372425,
              49.263426338631405
            ],
            [
              -123.05518528809237,
              49.26319958151606
            ],
            [
              -123.0558776828588,
              49.263198853655176
            ],
            [
              -123.05626437791545,
              49.26299853710385
            ],
            [
              -123.0563446924782,
              49.26201222976586
            ],
            [
              -123.05605925723148,
              49.26171932842517
            ],
            [
              -123.05656849564055,
              49.261838739116655
            ],
            [
              -123.05707720456257,
              49.26150502091561
            ],
            [
              -123.05707654749027,
              49.260945273460116
            ],
            [
              -123.05673007010884,
              49.260692418303556
            ],
            [
              -123.0552027896619,
              49.260680696558694
            ],
            [
              -123.05522059226041,
              49.258428358008686
            ]
          ]
        ]
      }
    },
    {
      "type": "Feature",
      "properties": {
        "id": 3,
        "name": "Macdonald St & W 16th Ave"
      },
      "geometry": {
        "type": "Polygon",
        "coordinates": [
          [
            [
              -123.16088817243752,
              49.253865927180385
            ],
            [
              -123.17245348645983,
              49.253960386184815
            ],
            [
              -123.17252016475379,
              49.25557292772643
            ],
            [
              -123.17286700554197,
              49.25577247360151
            ],
            [
              -123.17398693986807,
              49.25578462349984
            ],
            [
              -123.17367968029244,
              49.2610892395294
            ],
            [
              -123.16685760108,
              49.261029774498155
            ],
            [
              -123.16437252183857,
              49.26081914910841
            ],
            [
              -123.15822236461858,
              49.26071899566284
            ],
            [
              -123.15838944442382,
              49.25564109393327
            ],
            [
              -123.16044600250719,
              49.255652259078616
            ],
            [
              -123.16079141536736,
              49.25542533070191
            ],
            [
              -123.16088817243752,
              49.253865927180385
            ]
          ]
        ]
      }
    },
    {
      "type": "Feature",
      "properties": {
        "id": 4,
        "name": "Commercial St & E 20th Ave"
      },
      "geometry": {
        "type": "Polygon",
        "coordinates": [
          [
            [
              -123.06555116704635,
              49.24826206478957
            ],
            [
              -123.06740380959837,
              49.248273444011666
            ],
            [
              -123.0674066410815,
              49.25032585134845
            ],
            [
              -123.06779378292421,
              49.25055200904893
            ],
            [
              -123.07292447978838,
              49.25062657823743
            ],
            [
              -123.07294636803267,
              49.25165276049816
            ],
            [
              -123.07325206531381,
              49.25185234918859
            ],
            [
              -123.07361862480428,
              49.251905273131946
            ],
            [
              -123.07394398220795,
              49.2516383842018
            ],
            [
              -123.07435158430364,
              49.2519045024557
            ],
            [
              -123.07471790146312,
              49.25179749855462
            ],
            [
              -123.07492170466975,
              49.251930557681575
            ],
            [
              -123.07567504513202,
              49.251943092918026
            ],
            [
              -123.07559689405849,
              49.25407554980774
            ],
            [
              -123.07280747525976,
              49.25409180997936
            ],
            [
              -123.07250259505037,
              49.25445196874442
            ],
            [
              -123.07246439777937,
              49.25615790856697
            ],
            [
              -123.06967474889294,
              49.256094204816385
            ],
            [
              -123.06941029294025,
              49.25626773828094
            ],
            [
              -123.06943233862074,
              49.25745384838609
            ],
            [
              -123.06574672093433,
              49.25741774121387
            ],
            [
              -123.06578697854758,
              49.257071188068934
            ],
            [
              -123.0660923916331,
              49.257057539633465
            ],
            [
              -123.06647881750067,
              49.25672394987845
            ],
            [
              -123.0665566696414,
              49.25408505481474
            ],
            [
              -123.06616947010744,
              49.25383224247353
            ],
            [
              -123.06511031933717,
              49.25354015462443
            ],
            [
              -123.06490681922645,
              49.253620332623385
            ],
            [
              -123.06462148739988,
              49.2534073952049
            ],
            [
              -123.06429571795096,
              49.25340773772768
            ],
            [
              -123.06268652879675,
              49.252863008798755
            ],
            [
              -123.06335701869062,
              49.25178278939567
            ],
            [
              -123.06413118659677,
              49.25215514087441
            ],
            [
              -123.06445698313598,
              49.25218145299236
            ],
            [
              -123.06547581002047,
              49.25279343934566
            ],
            [
              -123.06610660177384,
              49.252512901980026
            ],
            [
              -123.06547430864316,
              49.25167394443468
            ],
            [
              -123.06518941258174,
              49.251780862705054
            ],
            [
              -123.06486329943519,
              49.251514658820454
            ],
            [
              -123.06437452299795,
              49.25140855404167
            ],
            [
              -123.06296882041335,
              49.25073033783233
            ],
            [
              -123.06304770820446,
              49.24875780878705
            ],
            [
              -123.06522607204522,
              49.24874219084563
            ],
            [
              -123.06553114844391,
              49.24851530528426
            ],
            [
              -123.06555116704635,
              49.24826206478957
            ]
          ]
        ]
      }
    },
    {
      "type": "Feature",
      "properties": {
        "id": 5,
        "name": "Macdonald St & W King Edward Ave"
      },
      "geometry": {
        "type": "Polygon",
        "coordinates": [
          [
            [
              -123.16562825779894,
              49.246557546222704
            ],
            [
              -123.16587308601349,
              49.24671721717506
            ],
            [
              -123.16615756215052,
              49.246556989623194
            ],
            [
              -123.16748598858776,
              49.24808823996684
            ],
            [
              -123.16840388147241,
              49.248607042115914
            ],
            [
              -123.16868845078059,
              49.2484734692048
            ],
            [
              -123.16887290120434,
              49.2488331141857
            ],
            [
              -123.16921977191085,
              49.249059314701505
            ],
            [
              -123.16944367409224,
              49.24904575189673
            ],
            [
              -123.1694444010684,
              49.249258989022636
            ],
            [
              -123.17022114496307,
              49.25016443331612
            ],
            [
              -123.1709964496716,
              49.250643403357806
            ],
            [
              -123.17079331242822,
              49.25077689063824
            ],
            [
              -123.17128405452081,
              49.25138943359104
            ],
            [
              -123.17250915831056,
              49.25240102547866
            ],
            [
              -123.17245154482634,
              49.25340063872933
            ],
            [
              -123.16235240917987,
              49.253331293013154
            ],
            [
              -123.16180089326711,
              49.25278545088521
            ],
            [
              -123.16163653586537,
              49.25233249325406
            ],
            [
              -123.16137129049568,
              49.252159516389014
            ],
            [
              -123.16118826558208,
              49.25222634565993
            ],
            [
              -123.16106567253719,
              49.25209320090228
            ],
            [
              -123.16130930129498,
              49.25187970688429
            ],
            [
              -123.16061387191559,
              49.2508942130379
            ],
            [
              -123.16024679691704,
              49.25070801589086
            ],
            [
              -123.16024576499943,
              49.250388160202014
            ],
            [
              -123.15918229156811,
              49.24889661351972
            ],
            [
              -123.16253726442955,
              49.24760033117784
            ],
            [
              -123.16412424171695,
              49.24730546033119
            ],
            [
              -123.16497928451709,
              49.24730456120892
            ],
            [
              -123.16528399192038,
              49.24710433028827
            ],
            [
              -123.16516104598712,
              49.24686456696767
            ],
            [
              -123.16562825779894,
              49.246557546222704
            ]
          ]
        ]
      }
    },
    {
      "type": "Feature",
      "properties": {
        "id": 6,
        "name": "Mackenzie St & W 33rd Ave"
      },
      "geometry": {
        "type": "Polygon",
        "coordinates": [
          [
            [
              -123.16617206607212,
              49.238720482431006
            ],
            [
              -123.17537257232243,
              49.23876411544409
            ],
            [
              -123.17539889891665,
              49.24045666372325
            ],
            [
              -123.17574574154797,
              49.240682864239076
            ],
            [
              -123.17829022496166,
              49.24069351560027
            ],
            [
              -123.17822370646427,
              49.24485172518601
            ],
            [
              -123.175679106775,
              49.244867728465564
            ],
            [
              -123.17533392774253,
              49.24512131148302
            ],
            [
              -123.1753159672432,
              49.2458010262295
            ],
            [
              -123.16835359229732,
              49.24578169301308
            ],
            [
              -123.16837155660959,
              49.24507532362586
            ],
            [
              -123.16802471709772,
              49.24484912311004
            ],
            [
              -123.16647748295745,
              49.24482409545248
            ],
            [
              -123.16431636218151,
              49.24384014295857
            ],
            [
              -123.16309495666019,
              49.24384142741898
            ],
            [
              -123.16286932808575,
              49.24332189740901
            ],
            [
              -123.16290532061333,
              49.241882503993835
            ],
            [
              -123.1623748455926,
              49.24150989562301
            ],
            [
              -123.16294349679765,
              49.241109476597096
            ],
            [
              -123.16296214716866,
              49.240589689695035
            ],
            [
              -123.16573066509292,
              49.240640087532924
            ],
            [
              -123.16611657222545,
              49.240386461700126
            ],
            [
              -123.16617206607212,
              49.238720482431006
            ]
          ]
        ]
      }
    },
    {
      "type": "Feature",
      "properties": {
        "id": 7,
        "name": "Fraser St & E 33rd Ave"
      },
      "geometry": {
        "type": "Polygon",
        "coordinates": [
          [
            [
              -123.08519747304189,
              49.236699925537664
            ],
            [
              -123.09010286896563,
              49.23676140289021
            ],
            [
              -123.08998679127936,
              49.240066706787715
            ],
            [
              -123.0901498282318,
              49.24017315408928
            ],
            [
              -123.0899468118653,
              49.24046656921412
            ],
            [
              -123.09015060967496,
              49.24059962834107
            ],
            [
              -123.08994734792013,
              49.24075977026223
            ],
            [
              -123.09015129343769,
              49.2409727933114
            ],
            [
              -123.08994798143947,
              49.24110628059182
            ],
            [
              -123.08994939467492,
              49.24187926517321
            ],
            [
              -123.09011243741293,
              49.24198571247477
            ],
            [
              -123.08990926733705,
              49.242199163677405
            ],
            [
              -123.09023530652024,
              49.242385403639794
            ],
            [
              -123.09015427268972,
              49.242598726396395
            ],
            [
              -123.0904599835713,
              49.24279831508683
            ],
            [
              -123.09107032745003,
              49.24261109037146
            ],
            [
              -123.0915592240597,
              49.24279715907245
            ],
            [
              -123.09188477567207,
              49.24271685262747
            ],
            [
              -123.09204782523189,
              49.24282329992903
            ],
            [
              -123.09326925469165,
              49.24284867010937
            ],
            [
              -123.09347261556246,
              49.24274183746968
            ],
            [
              -123.09385961357493,
              49.24286137660721
            ],
            [
              -123.09380313947311,
              49.245273685816976
            ],
            [
              -123.0863521302038,
              49.24514824782177
            ],
            [
              -123.08637148055996,
              49.24457515163823
            ],
            [
              -123.08602496800091,
              49.24432229648167
            ],
            [
              -123.084457416388,
              49.244283962911425
            ],
            [
              -123.08453563373189,
              49.242418052429095
            ],
            [
              -123.08420952415551,
              49.24217850318523
            ],
            [
              -123.08453489995503,
              49.24199157817729
            ],
            [
              -123.08457295071406,
              49.24044556619917
            ],
            [
              -123.08506083313203,
              49.240071887444685
            ],
            [
              -123.08519747304189,
              49.236699925537664
            ]
          ]
        ]
      }
    },
    {
      "type": "Feature",
      "properties": {
        "id": 8,
        "name": "Heather St & W 33rd Ave"
      },
      "geometry": {
        "type": "Polygon",
        "coordinates": [
          [
            [
              -123.11495638959136,
              49.23736164817828
            ],
            [
              -123.12332282737538,
              49.23771268727446
            ],
            [
              -123.12324951006661,
              49.24096463907514
            ],
            [
              -123.12290329974257,
              49.24089836640374
            ],
            [
              -123.12261865232904,
              49.24103193931485
            ],
            [
              -123.12225185628789,
              49.24087239680855
            ],
            [
              -123.12196720729843,
              49.241005969719666
            ],
            [
              -123.1217633233527,
              49.24087291059271
            ],
            [
              -123.12131543612963,
              49.24084672692079
            ],
            [
              -123.12111214187937,
              49.240953559560474
            ],
            [
              -123.12066399420767,
              49.240820757325594
            ],
            [
              -123.12031843668899,
              49.24102103106158
            ],
            [
              -123.12044160870563,
              49.24144737686734
            ],
            [
              -123.120197728086,
              49.24160756160385
            ],
            [
              -123.12006329195934,
              49.24492621422939
            ],
            [
              -123.11621562836339,
              49.24486362367783
            ],
            [
              -123.1167435926525,
              49.24430331962282
            ],
            [
              -123.11873556363653,
              49.24304845355616
            ],
            [
              -123.1188543069828,
              49.241635629151034
            ],
            [
              -123.11852810234106,
              49.24142273454791
            ],
            [
              -123.11864902181844,
              49.24091616792785
            ],
            [
              -123.11838398482685,
              49.24074319106281
            ],
            [
              -123.11720342988245,
              49.24077108734861
            ],
            [
              -123.11571432761815,
              49.23942659075152
            ],
            [
              -123.11532699272743,
              49.23917377841032
            ],
            [
              -123.1151644023663,
              49.23928056823465
            ],
            [
              -123.1150217010204,
              49.23918742684579
            ],
            [
              -123.11526558630307,
              49.23902724210927
            ],
            [
              -123.11493879391138,
              49.238547801098775
            ],
            [
              -123.11495638959136,
              49.23736164817828
            ]
          ]
        ]
      }
    },
    {
      "type": "Feature",
      "properties": {
        "id": 9,
        "name": "Knight St & E 33rd Ave"
      },
      "geometry": {
        "type": "Polygon",
        "coordinates": [
          [
            [
              -123.07957968527732,
              49.236625870133324
            ],
            [
              -123.08432228107729,
              49.236714173387995
            ],
            [
              -123.08424635091416,
              49.23991281590719
            ],
            [
              -123.08379890174169,
              49.240126524001916
            ],
            [
              -123.08396251800602,
              49.24057948163306
            ],
            [
              -123.08371866202116,
              49.24081963029178
            ],
            [
              -123.08367954028847,
              49.241752585532936
            ],
            [
              -123.08367976732703,
              49.24188585873664
            ],
            [
              -123.08420956984385,
              49.24220515782598
            ],
            [
              -123.08384357016581,
              49.24244543493073
            ],
            [
              -123.08392549571387,
              49.24273855034815
            ],
            [
              -123.08364087090584,
              49.24295208718148
            ],
            [
              -123.08360238103839,
              49.24425820739297
            ],
            [
              -123.07678280080361,
              49.2442520516432
            ],
            [
              -123.0768418450935,
              49.24295923734441
            ],
            [
              -123.0764546791936,
              49.24270642500319
            ],
            [
              -123.07124335964176,
              49.24263194144538
            ],
            [
              -123.07130141784702,
              49.2405661425652
            ],
            [
              -123.07174857209728,
              49.240112542703855
            ],
            [
              -123.07182541524111,
              49.23699386410685
            ],
            [
              -123.07917338365483,
              49.23710608182007
            ],
            [
              -123.07955974213573,
              49.23687911062801
            ],
            [
              -123.07957968527732,
              49.236625870133324
            ]
          ]
        ]
      }
    },
    {
      "type": "Feature",
      "properties": {
        "id": 10,
        "name": "Mackenzie St & W 41st Ave"
      },
      "geometry": {
        "type": "Polygon",
        "coordinates": [
          [
            [
              -123.16785646209973,
              49.23120207549844
            ],
            [
              -123.17544785991188,
              49.2312607270381
            ],
            [
              -123.17533806702258,
              49.23475261342075
            ],
            [
              -123.175725576552,
              49.234978771121234
            ],
            [
              -123.17829007661226,
              49.23497607375438
            ],
            [
              -123.17831525757676,
              49.23632211170394
            ],
            [
              -123.17573038222861,
              49.23633815779885
            ],
            [
              -123.1754257818478,
              49.23653838871948
            ],
            [
              -123.17537059759452,
              49.2382043679886
            ],
            [
              -123.16619050367713,
              49.23814738624746
            ],
            [
              -123.16622568291976,
              49.23649475570639
            ],
            [
              -123.16587891203616,
              49.23626855519058
            ],
            [
              -123.16451508217001,
              49.23623000754359
            ],
            [
              -123.16462686772371,
              49.233111286131255
            ],
            [
              -123.16749660304657,
              49.23312159496967
            ],
            [
              -123.16784173868716,
              49.232868011952206
            ],
            [
              -123.16785646209973,
              49.23120207549844
            ]
          ]
        ]
      }
    },
    {
      "type": "Feature",
      "properties": {
        "id": 11,
        "name": "Granville St & W 41st Ave"
      },
      "geometry": {
        "type": "Polygon",
        "coordinates": [
          [
            [
              -123.13390826535067,
              49.230624726760766
            ],
            [
              -123.14441036096972,
              49.230880226808644
            ],
            [
              -123.14439478291274,
              49.23251950862168
            ],
            [
              -123.1447822133735,
              49.232772320962894
            ],
            [
              -123.14732636567872,
              49.23280962696482
            ],
            [
              -123.14729143904054,
              49.234755458554005
            ],
            [
              -123.14769905605067,
              49.234941612885706
            ],
            [
              -123.14753765789271,
              49.23542156768037
            ],
            [
              -123.14698855208128,
              49.235568746211605
            ],
            [
              -123.14670313143642,
              49.235409118074614
            ],
            [
              -123.146011039509,
              49.23538319129477
            ],
            [
              -123.14560475552344,
              49.23565016585562
            ],
            [
              -123.1452783197659,
              49.23538396197102
            ],
            [
              -123.14466764222266,
              49.23535794956048
            ],
            [
              -123.14428166597617,
              49.23561157539328
            ],
            [
              -123.14428515582642,
              49.23681103422647
            ],
            [
              -123.14387970181619,
              49.23737120983543
            ],
            [
              -123.14386054623193,
              49.23778437817454
            ],
            [
              -123.13071068500852,
              49.23742504256125
            ],
            [
              -123.13080411255888,
              49.234266360595484
            ],
            [
              -123.13192362676918,
              49.23430516513455
            ],
            [
              -123.13230972631285,
              49.23407819394248
            ],
            [
              -123.13234608705295,
              49.23245221804215
            ],
            [
              -123.13342485782492,
              49.232491065396566
            ],
            [
              -123.13385156872344,
              49.23223739674841
            ],
            [
              -123.13390826535067,
              49.230624726760766
            ]
          ]
        ]
      }
    },
    {
      "type": "Feature",
      "properties": {
        "id": 12,
        "name": "Wales St & E 41st Ave"
      },
      "geometry": {
        "type": "Polygon",
        "coordinates": [
          [
            [
              -123.04639614250927,
              49.22954397556409
            ],
            [
              -123.05471980369987,
              49.22965516570898
            ],
            [
              -123.05484477122971,
              49.232187228133
            ],
            [
              -123.05513118258527,
              49.23349300582172
            ],
            [
              -123.055072468785,
              49.235558804701895
            ],
            [
              -123.04933276726912,
              49.235511532384336
            ],
            [
              -123.04896670424662,
              49.23580511877057
            ],
            [
              -123.04855934046344,
              49.23551234587592
            ],
            [
              -123.04807086037565,
              49.23551285966008
            ],
            [
              -123.04800952215012,
              49.23523305015536
            ],
            [
              -123.04766331999957,
              49.23503350428028
            ],
            [
              -123.04638108482605,
              49.235048180284075
            ],
            [
              -123.0463793930412,
              49.2332889739954
            ],
            [
              -123.04613501079143,
              49.23312930304305
            ],
            [
              -123.04637900854463,
              49.232889154384324
            ],
            [
              -123.0459513694341,
              49.232636384858466
            ],
            [
              -123.0435701533273,
              49.23262556223589
            ],
            [
              -123.04356819770118,
              49.23046653633614
            ],
            [
              -123.0460306912514,
              49.2304506186873
            ],
            [
              -123.04637644523426,
              49.23022369031057
            ],
            [
              -123.04639614250927,
              49.22954397556409
            ]
          ]
        ]
      }
    },
    {
      "type": "Feature",
      "properties": {
        "id": 13,
        "name": "Oak St & W 49th Ave"
      },
      "geometry": {
        "type": "Polygon",
        "coordinates": [
          [
            [
              -123.12574508239982,
              49.22173063982379
            ],
            [
              -123.13486125469777,
              49.221854322389774
            ],
            [
              -123.13480605094624,
              49.22400008519217
            ],
            [
              -123.1351933675843,
              49.22425289753339
            ],
            [
              -123.1395074662918,
              49.224301668388094
            ],
            [
              -123.13941408274549,
              49.2272737678687
            ],
            [
              -123.1396181838693,
              49.22748679091788
            ],
            [
              -123.13937540663167,
              49.22799348598396
            ],
            [
              -123.13930029846162,
              49.230232561436615
            ],
            [
              -123.13044677278081,
              49.22996200004681
            ],
            [
              -123.13016262783358,
              49.23025550080236
            ],
            [
              -123.12963349551674,
              49.23025605740187
            ],
            [
              -123.12906345224661,
              49.2301766928945
            ],
            [
              -123.12867598247936,
              49.22987057127182
            ],
            [
              -123.12871515992876,
              49.22928412636025
            ],
            [
              -123.12828692861352,
              49.228951392912165
            ],
            [
              -123.1221404864171,
              49.22874462090364
            ],
            [
              -123.12219689576695,
              49.22686540450863
            ],
            [
              -123.12258344414971,
              49.22682501580172
            ],
            [
              -123.12286774618752,
              49.22658482432766
            ],
            [
              -123.12364110343404,
              49.226610665476805
            ],
            [
              -123.12402718095795,
              49.226383694284735
            ],
            [
              -123.12410282915695,
              49.224091309550616
            ],
            [
              -123.12530343881306,
              49.22410337381825
            ],
            [
              -123.12568942182742,
              49.223849747985454
            ],
            [
              -123.12574508239982,
              49.22173063982379
            ]
          ]
        ]
      }
    },
    {
      "type": "Feature",
      "properties": {
        "id": 14,
        "name": "Kerr St & E 54th Ave"
      },
      "geometry": {
        "type": "Polygon",
        "coordinates": [
          [
            [
              -123.04259839162876,
              49.21547430708191
            ],
            [
              -123.04349411174992,
              49.21605976724051
            ],
            [
              -123.04487807490902,
              49.21656474969272
            ],
            [
              -123.04878632633259,
              49.21842646427106
            ],
            [
              -123.05014943959847,
              49.218331738714355
            ],
            [
              -123.05011092875468,
              49.22043749814797
            ],
            [
              -123.05064026371059,
              49.22073014259658
            ],
            [
              -123.05064048690934,
              49.22094337972247
            ],
            [
              -123.05055940358038,
              49.22123666640128
            ],
            [
              -123.05007131059553,
              49.22147707195208
            ],
            [
              -123.05007224891432,
              49.22238332973716
            ],
            [
              -123.04895314826807,
              49.2224244891203
            ],
            [
              -123.04720363428464,
              49.22285280443202
            ],
            [
              -123.04569791731005,
              49.222907697881325
            ],
            [
              -123.04539290731603,
              49.22313458344271
            ],
            [
              -123.04529240622071,
              49.224454095197586
            ],
            [
              -123.03711212406893,
              49.22440939180082
            ],
            [
              -123.03717154137058,
              49.2223169382799
            ],
            [
              -123.03678473437107,
              49.22206412593869
            ],
            [
              -123.03273547745079,
              49.222028404104606
            ],
            [
              -123.0328962082994,
              49.21906956772134
            ],
            [
              -123.0326106397775,
              49.21803033644001
            ],
            [
              -123.0330174163742,
              49.217816671160634
            ],
            [
              -123.03289519148811,
              49.217603562480775
            ],
            [
              -123.03348495514362,
              49.21721644936754
            ],
            [
              -123.0339326796448,
              49.21737590624316
            ],
            [
              -123.03523415198794,
              49.21646827836698
            ],
            [
              -123.03653586323003,
              49.21593381546113
            ],
            [
              -123.03844818111031,
              49.21574522065467
            ],
            [
              -123.04215105417701,
              49.21576797909884
            ],
            [
              -123.04259839162876,
              49.21547430708191
            ]
          ]
        ]
      }
    },
    {
      "type": "Feature",
      "properties": {
        "id": 15,
        "name": "Angus Dr & W 57th Ave"
      },
      "geometry": {
        "type": "Polygon",
        "coordinates": [
          [
            [
              -123.14074577652924,
              49.21609071176516
            ],
            [
              -123.15423555488464,
              49.21630308292395
            ],
            [
              -123.15401060178394,
              49.222487216467144
            ],
            [
              -123.15232158612186,
              49.22244901134294
            ],
            [
              -123.1518135771687,
              49.22267611098104
            ],
            [
              -123.15240748192045,
              49.22391493095281
            ],
            [
              -123.14042161568645,
              49.22375428490767
            ],
            [
              -123.14053410773363,
              49.220369017087954
            ],
            [
              -123.14020794851302,
              49.22015612248484
            ],
            [
              -123.14008481066492,
              49.21978308596054
            ],
            [
              -123.14061307652005,
              49.219515982953666
            ],
            [
              -123.14074577652924,
              49.21609071176516
            ]
          ]
        ]
      }
    },
    {
      "type": "Feature",
      "properties": {
        "id": 16,
        "name": "Victoria Dr & E 61st Ave"
      },
      "geometry": {
        "type": "Polygon",
        "coordinates": [
          [
            [
              -123.0601719150667,
              49.21161754258584
            ],
            [
              -123.06399669915143,
              49.211746791146936
            ],
            [
              -123.06786382093966,
              49.21304880108512
            ],
            [
              -123.07168857871918,
              49.21307143108325
            ],
            [
              -123.07163236728854,
              49.21636334343736
            ],
            [
              -123.07130808154118,
              49.217216634463746
            ],
            [
              -123.07073939795748,
              49.21791025453777
            ],
            [
              -123.06925531397293,
              49.21875143848117
            ],
            [
              -123.06592013468384,
              49.21998106281354
            ],
            [
              -123.06115889036032,
              49.21995941756839
            ],
            [
              -123.06121736776939,
              49.217920273328936
            ],
            [
              -123.06087119875905,
              49.21769407281312
            ],
            [
              -123.05983349713424,
              49.217655182643355
            ],
            [
              -123.05990825155097,
              49.212270859583676
            ],
            [
              -123.05970412525747,
              49.21171132620492
            ],
            [
              -123.0601719150667,
              49.21161754258584
            ]
          ]
        ]
      }
    },
    {
      "type": "Feature",
      "properties": {
        "id": 17,
        "name": "Oak St & W 67th Ave"
      },
      "geometry": {
        "type": "Polygon",
        "coordinates": [
          [
            [
              -123.12461420046323,
              49.2089908775656
            ],
            [
              -123.1373899631829,
              49.209190670672584
            ],
            [
              -123.13729811288734,
              49.21274917224942
            ],
            [
              -123.13422603684748,
              49.21271242284699
            ],
            [
              -123.13388072697548,
              49.212912696582976
            ],
            [
              -123.13374432886744,
              49.215138508938274
            ],
            [
              -123.12775845830339,
              49.21343890578707
            ],
            [
              -123.12446252618591,
              49.213389064548686
            ],
            [
              -123.12461420046323,
              49.2089908775656
            ]
          ]
        ]
      }
    }
  ]
}